STARLINK-3287           
1 50172U 21125S   26068.76160230  .00000566  00000+0  53616-4 0  9994
2 50172  53.2165 248.7967 0001099 109.8238 250.2873 15.08847367236649
CHAMRAN-1               
1 61072U 24165B   26068.91010681  .00007263  00000+0  44320-3 0  9995
2 61072  64.0789   8.4365 0045019 310.8781  48.8437 15.10235792 81665
